[{"OBJECT_NAME":"STARLINK-31363","OBJECT_ID":"2024-093A","EPOCH":"2026-03-09T16:49:05.556864","MEAN_MOTION":15.2756469,"ECCENTRICITY":0.00011059,"INCLINATION":43.0027,"RA_OF_ASC_NODE":205.6275,"ARG_OF_PERICENTER":210.0856,"MEAN_ANOMALY":149.9932,"EPHEMERIS_TYPE":0,"CLASSIFICATION_TYPE":"U","NORAD_CAT_ID":59782,"ELEMENT_SET_NO":999,"REV_AT_EPOCH":10273,"BSTAR":-6.8521965e-5,"MEAN_MOTION_DOT":-2.146e-5,"MEAN_MOTION_DDOT":0},{"OBJECT_NAME":"FLOCK 4G-22","OBJECT_ID":"2025-009AN","EPOCH":"2026-03-09T22:51:40.689792","MEAN_MOTION":15.2720903,"ECCENTRICITY":8.959e-5,"INCLINATION":97.4046,"RA_OF_ASC_NODE":151.5884,"ARG_OF_PERICENTER":284.1963,"MEAN_ANOMALY":75.9176,"EPHEMERIS_TYPE":0,"CLASSIFICATION_TYPE":"U","NORAD_CAT_ID":62645,"ELEMENT_SET_NO":999,"REV_AT_EPOCH":6376,"BSTAR":0.00049035383,"MEAN_MOTION_DOT":0.00013013,"MEAN_MOTION_DDOT":0}]
